{"fetched_at":"2026-03-30T13:17:50Z","count":15418,"tles":[{"name":"STARLINK-35197","line1":"1 66193U 25243S   26087.88009029  .00022232  00000+0  76048-3 0  9998","line2":"2 66193  53.1574 155.9936 0001012  73.7165 286.3947 15.30201341 23591","category":"Starlink"}]}