{
  "norad_id": 66193,
  "name": "STARLINK-35197",
  "history": [
    {
      "epoch": "2026-03-28T21:07:19.801056Z",
      "apogee_km": 475.9046242621871,
      "perigee_km": 474.5175066137426,
      "latitude_deg": 3.917868371123932e-06,
      "longitude_deg": 12.86690602747879,
      "height_km": 475.9148007608864,
      "semi_major_axis_km": 6853.348065437965,
      "eccentricity": 0.0001012,
      "inclination_deg": 53.1574,
      "raan_deg": 155.9936,
      "arg_perigee_deg": 73.7165,
      "mean_anomaly_deg": 286.3947,
      "mean_motion_rev_day": 15.30201341
    }
  ]
}